{
    "links": {
        "self": "http://www.neowsapp.com/rest/v1/neo/3708651?api_key=iIulBulltgU6a56xZRHN4H3l9WmuAYTsLGpBGhQ2"
    },
    "id": "3708651",
    "neo_reference_id": "3708651",
    "name": "(2015 BY509)",
    "designation": "2015 BY509",
    "nasa_jpl_url": "http://ssd.jpl.nasa.gov/sbdb.cgi?sstr=3708651",
    "absolute_magnitude_h": 22.1,
    "estimated_diameter": {
        "kilometers": {
            "estimated_diameter_min": 0.1010543415,
            "estimated_diameter_max": 0.2259643771
        },
        "meters": {
            "estimated_diameter_min": 101.054341542,
            "estimated_diameter_max": 225.9643771094
        },
        "miles": {
            "estimated_diameter_min": 0.0627922373,
            "estimated_diameter_max": 0.140407711
        },
        "feet": {
            "estimated_diameter_min": 331.5431259047,
            "estimated_diameter_max": 741.3529669956
        }
    },
    "is_potentially_hazardous_asteroid": false,
    "close_approach_data": [
        {
            "close_approach_date": "2015-01-06",
            "close_approach_date_full": "2015-Jan-06 15:09",
            "epoch_date_close_approach": 1420556940000,
            "relative_velocity": {
                "kilometers_per_second": "21.2791792736",
                "kilometers_per_hour": "76605.0453850093",
                "miles_per_hour": "47599.3961171465"
            },
            "miss_distance": {
                "astronomical": "0.1630952863",
                "lunar": "63.4440663707",
                "kilometers": "24398707.437520181",
                "miles": "15160653.7928172578"
            },
            "orbiting_body": "Earth"
        }
    ],
    "orbital_data": {
        "orbit_id": "3",
        "orbit_determination_date": "2017-04-06 08:36:04",
        "first_observation_date": "2015-01-21",
        "last_observation_date": "2015-01-25",
        "data_arc_in_days": 4,
        "observations_used": 15,
        "orbit_uncertainty": "9",
        "minimum_orbit_intersection": ".0599724",
        "jupiter_tisserand_invariant": "3.805",
        "epoch_osculation": "2457045.5",
        "eccentricity": ".4569172067824433",
        "semi_major_axis": "1.783966343259347",
        "inclination": "31.48164429526209",
        "ascending_node_longitude": "281.2537758517391",
        "orbital_period": "870.3188938836497",
        "perihelion_distance": ".9688414247033967",
        "perihelion_argument": "139.225624532498",
        "aphelion_distance": "2.599091261815297",
        "perihelion_time": "2456998.996916211311",
        "mean_anomaly": "19.23560465201863",
        "mean_motion": ".4136414853566621",
        "equinox": "J2000",
        "orbit_class": {
            "orbit_class_type": "APO",
            "orbit_class_description": "Near-Earth asteroid orbits which cross the Earth’s orbit similar to that of 1862 Apollo",
            "orbit_class_range": "a (semi-major axis) > 1.0 AU; q (perihelion) < 1.017 AU"
        }
    },
    "is_sentry_object": false
}